[{"C":"US","LS":"AFWTR","LV":"U","ON":"OV1-5","OT":1,"TLE1":"1  2122U 66025B   17115.45511274 +.00000280 +00000-0 +29064-4 0  9995","TLE2":"2  2122 144.6364 286.6379 0047811 218.0130 157.3106 13.65810193548797","R":"0.9522","LSC":null},{"C":"US","LS":"AFWTR","LV":"U","ON":"OV1-5 R\/B","OT":2,"TLE1":"1  2123U 66025C   17115.44967247 +.00000319 +00000-0 +76375-4 0  9990","TLE2":"2  2123 144.6423 274.6729 0047058 220.4988 174.5919 13.65576332548046","R":"0.9430","LSC":null},{"C":"US","LS":"AFWTR","LV":"U","ON":"OV1-4 R\/B","OT":2,"TLE1":"1  2124U 66025D   17115.81233597 +.00000354 +00000-0 +68773-4 0  9998","TLE2":"2  2124 144.5093 185.2532 0080980 018.6534 341.7100 13.87314265587595","R":"0.9105","LSC":null},{"C":"US","LS":"AFWTR","LV":"U","ON":"OPS 0340","OT":1,"TLE1":"1  2125U 66026A   17115.70483402 +.00000147 +00000-0 +38765-4 0  9998","TLE2":"2  2125 098.2298 340.8496 0154984 222.8763 136.0267 14.56513032673062","R":"0.6060","LSC":null},{"C":"US","LS":"AFWTR","LV":"U","ON":"SCOUT A DEB","OT":3,"TLE1":"1  2140U 66005C   17115.89094096 +.00000190 +00000-0 +21202-3 0  9994","TLE2":"2  2140 089.8697 082.7563 0322125 092.0792 271.7274 13.47129431508751","R":"0.0480","LSC":null},{"C":"US","LS":"AFWTR","LV":"U","ON":"SCOUT A DEB","OT":3,"TLE1":"1  2141U 66005D   17115.74387902 +.00000547 +00000-0 +32857-3 0  9994","TLE2":"2  2141 090.0822 203.7127 0127443 182.3609 177.6987 14.01833977600434","R":"0.0430","LSC":null},{"C":"US","LS":"AFETR","LV":"U","ON":"OAO 1","OT":1,"TLE1":"1  2142U 66031A   17115.71532106 +.00000044 +00000-0 +22509-4 0  9995","TLE2":"2  2142 035.0450 207.7672 0006682 045.4562 314.6671 14.33866393671870","R":"12.0800","LSC":null},{"C":"US","LS":"AFETR","LV":"U","ON":"ATLAS AGENA D R\/B","OT":2,"TLE1":"1  2144U 66031B   17115.50317333 +.00000117 +00000-0 +40658-4 0  9993","TLE2":"2  2144 035.0414 133.0500 0008038 091.8723 268.2887 14.42615639680490","R":"6.0493","LSC":null},{"C":"US","LS":"AFWTR","LV":"U","ON":"OPS 1527 (OV3-1)","OT":1,"TLE1":"1  2150U 66034A   17115.82849518 +.00004482 +00000-0 +28285-3 0  9993","TLE2":"2  2150 082.3751 149.7581 1648845 166.7746 198.2694 12.04511725993990","R":"0.7760","LSC":null},{"C":"US","LS":"AFWTR","LV":"U","ON":"THOR AGENA B DEB","OT":3,"TLE1":"1  2153U 65098J   17115.91004576 +.00000656 +00000-0 +20397-3 0  9997","TLE2":"2  2153 079.7403 082.0723 1308699 041.1968 012.5470 12.33486498274460","R":"0.0980","LSC":null},{"C":"US","LS":"AFETR","LV":"U","ON":"DELTA 1 DEB","OT":3,"TLE1":"1  2154U 66008E   17115.65432639 +.00000244 +00000-0 +53653-4 0  9991","TLE2":"2  2154 097.8263 008.4920 0052995 151.9175 208.4906 14.64584037710550","R":"0.0171","LSC":null},{"C":"US","LS":"AFWTR","LV":"U","ON":"NIMBUS 2","OT":1,"TLE1":"1  2173U 66040A   17115.88835235 -.00000016 +00000-0 +59589-4 0  9994","TLE2":"2  2173 100.3208 218.0024 0055209 212.9584 255.9338 13.33519404478511","R":"1.9598","LSC":null},{"C":"US","LS":"AFWTR","LV":"U","ON":"THOR AGENA B R\/B","OT":2,"TLE1":"1  2174U 66040B   17115.91707088 -.00000046 +00000-0 +40954-5 0  9993","TLE2":"2  2174 100.5350 284.8447 0056201 006.6147 115.1847 13.36064094483261","R":"4.7365","LSC":null},{"C":"US","LS":"AFWTR","LV":"U","ON":"OPS 0082 (TRANSIT 13)","OT":1,"TLE1":"1  2176U 66041A   17115.85447056 +.00000270 +00000-0 +16395-3 0  9993","TLE2":"2  2176 090.1505 015.1726 0073604 221.2260 138.3348 14.02826313599604","R":"1.1192","LSC":null},{"C":"US","LS":"AFWTR","LV":"U","ON":"THOR ALTAIR DEB","OT":3,"TLE1":"1  2177U 66026D   17115.88060694 +.00000447 +00000-0 +81250-4 0  9998","TLE2":"2  2177 098.9934 107.2860 0165102 233.7841 124.7999 14.63893599673024","R":"0.0410","LSC":null},{"C":"US","LS":"AFWTR","LV":"U","ON":"SCOUT A R\/B","OT":2,"TLE1":"1  2180U 66041B   17115.81105958 +.00000149 +00000-0 +91610-4 0  9995","TLE2":"2  2180 090.1497 015.4696 0080504 032.6093 328.0020 14.00006258596409","R":"0.6180","LSC":null},{"C":"US","LS":"WLPIS","LV":"U","ON":"OPS 1427 (OV3-4)","OT":1,"TLE1":"1  2201U 66052A   17115.68636172 -.00000095 +00000-0 -61335-4 0  9996","TLE2":"2  2201 040.8891 223.1493 2234878 059.3685 320.8461 10.09673693859810","R":"0.8019","LSC":null},{"C":"US","LS":"WLPIS","LV":"U","ON":"SCOUT B R\/B","OT":2,"TLE1":"1  2206U 66052B   17115.12642969 -.00000128 +00000-0 -15784-3 0  9994","TLE2":"2  2206 040.8756 047.7489 2214997 271.2054 063.7777 10.13633741863841","R":"0.7736","LSC":null},{"C":"US","LS":"AFETR","LV":"U","ON":"OPS 9381 (GGTS)","OT":1,"TLE1":"1  2207U 66053A   17115.51942542 -.00000060 +00000-0 +00000-0 0  9995","TLE2":"2  2207 002.8120 058.2329 0026101 160.5403 336.9031 01.07983299199893","R":"0.8912","LSC":null},{"C":"US","LS":"AFETR","LV":"U","ON":"OPS 9311 (IDSCS 1)","OT":1,"TLE1":"1  2215U 66053B   17115.35555535 -.00000064 +00000-0 +00000-0 0  9992","TLE2":"2  2215 002.8014 058.7052 0028108 148.0107 316.5355 01.07908789098323","R":"0.1781","LSC":null},{"C":"US","LS":"AFETR","LV":"U","ON":"OPS 9312 (IDSCS 2)","OT":1,"TLE1":"1  2216U 66053C   17115.45858126 -.00000104 +00000-0 +00000-0 0  9991","TLE2":"2  2216 002.7730 058.6842 0029434 141.3726 040.9145 01.07850956199958","R":"0.2925","LSC":null},{"C":"US","LS":"AFETR","LV":"U","ON":"OPS 9313 (IDSCS 3)","OT":1,"TLE1":"1  2217U 66053D   17115.30077911 -.00000120 +00000-0 +00000-0 0  9999","TLE2":"2  2217 002.7266 058.6506 0032411 131.7819 038.4044 01.07755143103525","R":"0.1000","LSC":null},{"C":"US","LS":"AFETR","LV":"U","ON":"OPS 9314 (IDSCS 4)","OT":1,"TLE1":"1  2218U 66053E   17115.59913911 -.00000126 +00000-0 +00000-0 0  9996","TLE2":"2  2218 002.6189 058.0825 0039120 119.1561 345.4239 01.07585667199473","R":"0.2152","LSC":null},{"C":"US","LS":"AFETR","LV":"U","ON":"OPS 9315 (IDSCS 5)","OT":1,"TLE1":"1  2219U 66053F   17114.96910105 -.00000100 +00000-0 +00000-0 0  9991","TLE2":"2  2219 002.5552 058.4210 0047950 109.2005 251.2606 01.07398840020652","R":"9.8962","LSC":null},{"C":"US","LS":"AFETR","LV":"U","ON":"OPS 9316 (IDSCS 6)","OT":1,"TLE1":"1  2220U 66053G   17115.50024983 -.00000120 +00000-0 +00000-0 0  9996","TLE2":"2  2220 002.4150 057.6259 0060621 100.9124 112.5157 01.07157166103242","R":"0.2099","LSC":null},{"C":"US","LS":"AFETR","LV":"U","ON":"OPS 9317 (IDSCS 7)","OT":1,"TLE1":"1  2221U 66053H   17112.85548251 -.00000138 +00000-0 +00000-0 0  9990","TLE2":"2  2221 002.2974 057.6714 0076114 094.2049 080.5115 01.06870622198257","R":"0.3981","LSC":null},{"C":"US","LS":"AFETR","LV":"U","ON":"TITAN 3C TRANSTAGE R\/B","OT":2,"TLE1":"1  2222U 66053J   17115.71211484 -.00000118 +00000-0 +00000-0 0  9992","TLE2":"2  2222 002.1789 058.6555 0158418 088.8903 350.4541 01.06720969094863","R":"2.1676","LSC":null},{"C":"US","LS":"AFETR","LV":"U","ON":"DELTA 1 DEB","OT":3,"TLE1":"1  2223U 66016C   17112.05781031 -.00000025 +00000-0 +81041-4 0  9991","TLE2":"2  2223 101.2063 144.2728 0094086 107.0127 283.9049 12.87651536397106","R":"0.0675","LSC":null},{"C":"US","LS":"AFETR","LV":"U","ON":"DELTA 1 DEB","OT":3,"TLE1":"1  2224U 66016D   17111.20476786 -.00000047 +00000-0 -32097-4 0  9998","TLE2":"2  2224 101.1474 212.8146 0136985 004.5068 023.6146 12.52076737327812","R":"0.0781","LSC":null},{"C":"US","LS":"AFWTR","LV":"U","ON":"SCOUT A DEB","OT":3,"TLE1":"1  2226U 65109D   17114.91644219 +.00000048 +00000-0 +49137-4 0  9993","TLE2":"2  2226 089.0570 262.4705 0247912 344.5892 014.7802 13.50254402502813","R":"0.0500","LSC":null},{"C":"US","LS":"AFWTR","LV":"U","ON":"THOR AGENA D R\/B","OT":2,"TLE1":"1  2255U 66056B   17115.37264243 +.00000002 +00000-0 +00000-0 0  9995","TLE2":"2  2255 086.9327 117.8469 0050355 345.0495 014.8823 07.94760896475058","R":"6.6693","LSC":null},{"C":"US","LS":"AFWTR","LV":"U","ON":"PAGEOS 1 DEB","OT":3,"TLE1":"1  2256U 66056C   17115.33063278 -.00000018 +00000-0 -19350-1 0  9995","TLE2":"2  2256 086.8919 100.4619 0032970 023.8141 336.4184 07.93706784473496","R":"1.2867","LSC":null},{"C":"US","LS":"AFWTR","LV":"U","ON":"ATLAS D DEB","OT":3,"TLE1":"1  2327U 66063B   17115.87270143 +.00000980 +00000-0 +48238-3 0  9997","TLE2":"2  2327 144.1978 092.0754 0031125 168.6193 191.5200 13.99337792569532","R":"0.2740","LSC":null},{"C":"US","LS":"AFWTR","LV":"U","ON":"ATLAS D R\/B","OT":2,"TLE1":"1  2328U 66063C   17115.68536375 +.00000293 +00000-0 +51662-4 0  9992","TLE2":"2  2328 144.2328 357.8625 0010269 298.8550 096.1826 13.69774538542660","R":"0.9660","LSC":null},{"C":"US","LS":"AFWTR","LV":"U","ON":"ATLAS D DEB","OT":3,"TLE1":"1  2329U 66063D   17115.15176101 +.00000618 +00000-0 +29306-3 0  9992","TLE2":"2  2329 144.2764 207.2464 0019024 267.7094 128.3443 13.88493054557425","R":"0.1072","LSC":null},{"C":"CIS","LS":"TTMTR","LV":"U","ON":"SL-8 DEB","OT":3,"TLE1":"1  2334U 65020EH  17115.39735475 +.00000149 +00000-0 +32829-3 0  9994","TLE2":"2  2334 055.6709 108.6155 0592204 075.8415 290.7551 13.08984466413921","R":"0.0712","LSC":null},{"C":"US","LS":"AFWTR","LV":"U","ON":"ATLAS D DEB","OT":3,"TLE1":"1  2337U 66063E   17115.86744925 +.00000324 +00000-0 +82607-4 0  9992","TLE2":"2  2337 144.2309 094.0142 0004968 065.9834 351.4260 13.71687990543310","R":"0.3690","LSC":null},{"C":"US","LS":"AFWTR","LV":"U","ON":"SCOUT A DEB","OT":3,"TLE1":"1  2353U 66024C   17115.04283318 +.00000108 +00000-0 +89562-4 0  9998","TLE2":"2  2353 089.4092 227.3329 0155723 087.6930 274.2056 13.75964181555568","R":"0.0480","LSC":null},{"C":"US","LS":"AFWTR","LV":"U","ON":"WESTFORD NEEDLES","OT":3,"TLE1":"1  2359U 63014J   17115.06255967 +.00000555 +00000-0 +20352+0 0  9994","TLE2":"2  2359 087.1712 353.1676 0632333 156.4811 206.6346 08.68858700624531","R":"0.1806","LSC":null},{"C":"US","LS":"AFWTR","LV":"U","ON":"WESTFORD NEEDLES","OT":3,"TLE1":"1  2361U 63014L   17115.45462446 +.00000009 +00000-0 +27415-2 0  9996","TLE2":"2  2361 087.3743 139.4015 0082666 211.2599 148.3323 08.66064215706078","R":"0.4444","LSC":null},{"C":"US","LS":"AFWTR","LV":"U","ON":"WESTFORD NEEDLES","OT":3,"TLE1":"1  2362U 63014M   17115.20722855 +.00003153 +00000-0 +22429+0 0  9993","TLE2":"2  2362 086.1519 200.2496 1863663 321.2382 026.8191 08.75957055712718","R":"0.2462","LSC":null}]